[{"OBJECT_NAME":"YAOGAN-36 04C","OBJECT_ID":"2022-171E","EPOCH":"2026-03-09T18:55:44.889600","MEAN_MOTION":15.29852307,"ECCENTRICITY":0.00066848,"INCLINATION":34.9797,"RA_OF_ASC_NODE":96.6578,"ARG_OF_PERICENTER":275.3761,"MEAN_ANOMALY":84.6192,"EPHEMERIS_TYPE":0,"CLASSIFICATION_TYPE":"U","NORAD_CAT_ID":54750,"ELEMENT_SET_NO":999,"REV_AT_EPOCH":18024,"BSTAR":0.00054591902,"MEAN_MOTION_DOT":0.00016196,"MEAN_MOTION_DDOT":0},{"OBJECT_NAME":"STARLINK-35553","OBJECT_ID":"2025-237G","EPOCH":"2026-03-09T07:42:07.087968","MEAN_MOTION":15.30197444,"ECCENTRICITY":0.0001544,"INCLINATION":53.1614,"RA_OF_ASC_NODE":41.373,"ARG_OF_PERICENTER":85.7093,"MEAN_ANOMALY":274.4084,"EPHEMERIS_TYPE":0,"CLASSIFICATION_TYPE":"U","NORAD_CAT_ID":66120,"ELEMENT_SET_NO":999,"REV_AT_EPOCH":2255,"BSTAR":0.00092205888,"MEAN_MOTION_DOT":0.00027047,"MEAN_MOTION_DDOT":0}]
