YAOGAN-36 04C           
1 54750U 22171E   26068.78871400  .00016196  00000+0  54592-3 0  9991
2 54750  34.9797  96.6578 0006685 275.3761  84.6192 15.29852307180246
STARLINK-35553          
1 66120U 25237G   26068.32091537  .00027047  00000+0  92206-3 0  9997
2 66120  53.1614  41.3730 0001544  85.7093 274.4084 15.30197444 22552
